start=new Date('2022-06-08T00:00:00.000Z').valueOf();
sats=[{"RCS_SIZE":"LARGE","OBJECT_ID":"2021-038E","MEAN_MOTION_DDOT":"0.0000000000000","ELEMENT_SET_NO":"999","ECCENTRICITY":"0.00018500","TIME_SYSTEM":"UTC","MEAN_ELEMENT_THEORY":"SGP4","RA_OF_ASC_NODE":"35.5353","EPOCH":"2022-06-07T20:42:51.197184","OBJECT_NAME":"STARLINK-2636","SITE":"AFETR","OBJECT_TYPE":"PAYLOAD","GP_ID":"205594727","FILE":"3485136","REV_AT_EPOCH":"6041","MEAN_MOTION_DOT":"0.00001758","MEAN_ANOMALY":"295.1104","BSTAR":"0.00013689000000","CLASSIFICATION_TYPE":"U","APOAPSIS":"548.485","MEAN_MOTION":"15.06403249","COUNTRY_CODE":"US","REF_FRAME":"TEME","PERIAPSIS":"545.922","CENTER_NAME":"EARTH","ARG_OF_PERICENTER":"65.0077","TLE_LINE1":"1 48357U 21038E   22158.86309256  .00001758  00000-0  13689-3 0  9999","NORAD_CAT_ID":"48357","PERIOD":"95.592","DECAY_DATE":null,"INCLINATION":"53.0563","LAUNCH_DATE":"2021-05-04","SEMIMAJOR_AXIS":"6925.339","EPHEMERIS_TYPE":"0","TLE_LINE2":"2 48357  53.0563  35.5353 0001850  65.0077 295.1104 15.06403249 60411"},{"ECCENTRICITY":"0.00020910","ELEMENT_SET_NO":"999","TIME_SYSTEM":"UTC","RCS_SIZE":"LARGE","OBJECT_ID":"2021-038F","MEAN_MOTION_DDOT":"0.0000000000000","GP_ID":"205572822","FILE":"3485117","RA_OF_ASC_NODE":"35.5196","MEAN_ELEMENT_THEORY":"SGP4","EPOCH":"2022-06-07T20:33:35.478432","SITE":"AFETR","OBJECT_TYPE":"PAYLOAD","OBJECT_NAME":"STARLINK-2624","MEAN_MOTION":"15.06404909","REF_FRAME":"TEME","COUNTRY_CODE":"US","PERIAPSIS":"545.750","MEAN_ANOMALY":"309.9589","BSTAR":"-0.00003037500000","CLASSIFICATION_TYPE":"U","REV_AT_EPOCH":"6099","MEAN_MOTION_DOT":"-0.00000734","APOAPSIS":"548.647","INCLINATION":"53.0559","TLE_LINE2":"2 48358  53.0559  35.5196 0002091  50.1583 309.9589 15.06404909 60995","LAUNCH_DATE":"2021-05-04","SEMIMAJOR_AXIS":"6925.334","EPHEMERIS_TYPE":"0","CENTER_NAME":"EARTH","ARG_OF_PERICENTER":"50.1583","TLE_LINE1":"1 48358U 21038F   22158.85666063 -.00000734  00000-0 -30375-4 0  9998","PERIOD":"95.592","NORAD_CAT_ID":"48358","DECAY_DATE":null},{"RCS_SIZE":"LARGE","OBJECT_ID":"2021-038G","MEAN_MOTION_DDOT":"0.0000000000000","ELEMENT_SET_NO":"999","ECCENTRICITY":"0.00020030","TIME_SYSTEM":"UTC","RA_OF_ASC_NODE":"35.5512","MEAN_ELEMENT_THEORY":"SGP4","EPOCH":"2022-06-07T20:28:17.152320","OBJECT_TYPE":"PAYLOAD","SITE":"AFETR","OBJECT_NAME":"STARLINK-2628","GP_ID":"205595222","FILE":"3485136","CLASSIFICATION_TYPE":"U","BSTAR":"0.00000984280000","MEAN_ANOMALY":"300.0230","REV_AT_EPOCH":"6040","MEAN_MOTION_DOT":"-0.00000135","APOAPSIS":"548.590","MEAN_MOTION":"15.06403398","REF_FRAME":"TEME","COUNTRY_CODE":"US","PERIAPSIS":"545.816","CENTER_NAME":"EARTH","TLE_LINE1":"1 48359U 21038G   22158.85297630 -.00000135  00000-0  98428-5 0  9997","ARG_OF_PERICENTER":"60.0958","PERIOD":"95.592","NORAD_CAT_ID":"48359","DECAY_DATE":null,"INCLINATION":"53.0564","TLE_LINE2":"2 48359  53.0564  35.5512 0002003  60.0958 300.0230 15.06403398 60405","SEMIMAJOR_AXIS":"6925.338","LAUNCH_DATE":"2021-05-04","EPHEMERIS_TYPE":"0"},{"ECCENTRICITY":"0.00015970","ELEMENT_SET_NO":"999","TIME_SYSTEM":"UTC","RCS_SIZE":"LARGE","MEAN_MOTION_DDOT":"0.0000000000000","OBJECT_ID":"2021-038H","GP_ID":"205573089","FILE":"3485128","EPOCH":"2022-06-07T20:22:59.068128","RA_OF_ASC_NODE":"35.5766","MEAN_ELEMENT_THEORY":"SGP4","OBJECT_TYPE":"PAYLOAD","SITE":"AFETR","OBJECT_NAME":"STARLINK-2622","REF_FRAME":"TEME","COUNTRY_CODE":"US","MEAN_MOTION":"15.06396359","PERIAPSIS":"546.119","APOAPSIS":"548.331","MEAN_ANOMALY":"301.8613","BSTAR":"0.00001377100000","CLASSIFICATION_TYPE":"U","REV_AT_EPOCH":"6099","MEAN_MOTION_DOT":"-0.00000076","INCLINATION":"53.0551","TLE_LINE2":"2 48360  53.0551  35.5766 0001597  58.2531 301.8613 15.06396359 60993","LAUNCH_DATE":"2021-05-04","EPHEMERIS_TYPE":"0","SEMIMAJOR_AXIS":"6925.360","ARG_OF_PERICENTER":"58.2531","TLE_LINE1":"1 48360U 21038H   22158.84929477 -.00000076  00000-0  13771-4 0  9990","CENTER_NAME":"EARTH","DECAY_DATE":null,"PERIOD":"95.592","NORAD_CAT_ID":"48360"},{"ELEMENT_SET_NO":"999","ECCENTRICITY":"0.00016850","TIME_SYSTEM":"UTC","RCS_SIZE":"LARGE","MEAN_MOTION_DDOT":"0.0000000000000","OBJECT_ID":"2021-038J","GP_ID":"205594228","FILE":"3485136","EPOCH":"2022-06-07T20:17:40.470720","RA_OF_ASC_NODE":"35.5679","MEAN_ELEMENT_THEORY":"SGP4","SITE":"AFETR","OBJECT_TYPE":"PAYLOAD","OBJECT_NAME":"STARLINK-2591","REF_FRAME":"TEME","COUNTRY_CODE":"US","MEAN_MOTION":"15.06402014","PERIAPSIS":"546.040","APOAPSIS":"548.374","BSTAR":"0.00002095300000","MEAN_ANOMALY":"291.4086","CLASSIFICATION_TYPE":"U","REV_AT_EPOCH":"6040","MEAN_MOTION_DOT":"0.00000031","INCLINATION":"53.0566","TLE_LINE2":"2 48361  53.0566  35.5679 0001685  68.7083 291.4086 15.06402014 60409","SEMIMAJOR_AXIS":"6925.342","LAUNCH_DATE":"2021-05-04","EPHEMERIS_TYPE":"0","ARG_OF_PERICENTER":"68.7083","TLE_LINE1":"1 48361U 21038J   22158.84560730  .00000031  00000-0  20953-4 0  9994","CENTER_NAME":"EARTH","DECAY_DATE":null,"PERIOD":"95.592","NORAD_CAT_ID":"48361"},{"APOAPSIS":"550.571","CLASSIFICATION_TYPE":"U","BSTAR":"-0.00482010000000","MEAN_ANOMALY":"320.7694","MEAN_MOTION_DOT":"-0.00070236","REV_AT_EPOCH":"6041","PERIAPSIS":"547.521","REF_FRAME":"TEME","COUNTRY_CODE":"US","MEAN_MOTION":"15.05802293","DECAY_DATE":null,"PERIOD":"95.630","NORAD_CAT_ID":"48362","ARG_OF_PERICENTER":"39.3454","TLE_LINE1":"1 48362U 21038K   22158.87114839 -.00070236  00000-0 -48201-2 0  9993","CENTER_NAME":"EARTH","TLE_LINE2":"2 48362  53.0531  35.4841 0002201  39.3454 320.7694 15.05802293 60417","SEMIMAJOR_AXIS":"6927.181","LAUNCH_DATE":"2021-05-04","EPHEMERIS_TYPE":"0","INCLINATION":"53.0531","MEAN_MOTION_DDOT":"0.0000000000000","OBJECT_ID":"2021-038K","RCS_SIZE":"LARGE","TIME_SYSTEM":"UTC","ELEMENT_SET_NO":"999","ECCENTRICITY":"0.00022010","SITE":"AFETR","OBJECT_TYPE":"PAYLOAD","OBJECT_NAME":"STARLINK-2578","EPOCH":"2022-06-07T20:54:27.220896","RA_OF_ASC_NODE":"35.4841","MEAN_ELEMENT_THEORY":"SGP4","FILE":"3485136","GP_ID":"205594977"},{"PERIAPSIS":"546.191","MEAN_MOTION":"15.06404044","REF_FRAME":"TEME","COUNTRY_CODE":"US","BSTAR":"0.00004414600000","MEAN_ANOMALY":"278.0654","CLASSIFICATION_TYPE":"U","MEAN_MOTION_DOT":"0.00000376","REV_AT_EPOCH":"6048","APOAPSIS":"548.212","TLE_LINE2":"2 48363  53.0582  30.3886 0001459  82.0500 278.0654 15.06404044 60489","LAUNCH_DATE":"2021-05-04","SEMIMAJOR_AXIS":"6925.336","EPHEMERIS_TYPE":"0","INCLINATION":"53.0582","PERIOD":"95.592","NORAD_CAT_ID":"48363","DECAY_DATE":null,"CENTER_NAME":"EARTH","ARG_OF_PERICENTER":"82.0500","TLE_LINE1":"1 48363U 21038L   22158.88845386  .00000376  00000-0  44146-4 0  9995","TIME_SYSTEM":"UTC","ECCENTRICITY":"0.00014590","ELEMENT_SET_NO":"999","OBJECT_ID":"2021-038L","MEAN_MOTION_DDOT":"0.0000000000000","RCS_SIZE":"LARGE","FILE":"3485136","GP_ID":"205595723","OBJECT_TYPE":"PAYLOAD","SITE":"AFETR","OBJECT_NAME":"STARLINK-2626","RA_OF_ASC_NODE":"30.3886","MEAN_ELEMENT_THEORY":"SGP4","EPOCH":"2022-06-07T21:19:22.413504"},{"GP_ID":"205594479","FILE":"3485136","EPOCH":"2022-06-07T21:40:38.969184","MEAN_ELEMENT_THEORY":"SGP4","RA_OF_ASC_NODE":"30.5226","OBJECT_NAME":"STARLINK-2611","OBJECT_TYPE":"PAYLOAD","SITE":"AFETR","ECCENTRICITY":"0.00014740","ELEMENT_SET_NO":"999","TIME_SYSTEM":"UTC","RCS_SIZE":"LARGE","MEAN_MOTION_DDOT":"0.0000000000000","OBJECT_ID":"2021-038M","INCLINATION":"53.0556","LAUNCH_DATE":"2021-05-04","SEMIMAJOR_AXIS":"6925.348","EPHEMERIS_TYPE":"0","TLE_LINE2":"2 48364  53.0556  30.5226 0001474  68.7143 291.4004 15.06400318 60480","ARG_OF_PERICENTER":"68.7143","TLE_LINE1":"1 48364U 21038M   22158.90322881  .00001162  00000-0  96892-4 0  9998","CENTER_NAME":"EARTH","DECAY_DATE":null,"NORAD_CAT_ID":"48364","PERIOD":"95.592","COUNTRY_CODE":"US","REF_FRAME":"TEME","MEAN_MOTION":"15.06400318","PERIAPSIS":"546.192","APOAPSIS":"548.233","MEAN_MOTION_DOT":"0.00001162","REV_AT_EPOCH":"6048","BSTAR":"0.00009689200000","CLASSIFICATION_TYPE":"U","MEAN_ANOMALY":"291.4004"},{"PERIAPSIS":"546.104","REF_FRAME":"TEME","COUNTRY_CODE":"US","MEAN_MOTION":"15.06400168","APOAPSIS":"548.322","CLASSIFICATION_TYPE":"U","BSTAR":"0.00011687000000","MEAN_ANOMALY":"281.3028","MEAN_MOTION_DOT":"0.00001460","REV_AT_EPOCH":"6048","TLE_LINE2":"2 48365  53.0548  30.5143 0001602  78.8141 281.3028 15.06400168 60480","EPHEMERIS_TYPE":"0","LAUNCH_DATE":"2021-05-04","SEMIMAJOR_AXIS":"6925.348","INCLINATION":"53.0548","DECAY_DATE":null,"PERIOD":"95.592","NORAD_CAT_ID":"48365","ARG_OF_PERICENTER":"78.8141","TLE_LINE1":"1 48365U 21038N   22158.86266629  .00001460  00000-0  11687-3 0  9990","CENTER_NAME":"EARTH","TIME_SYSTEM":"UTC","ECCENTRICITY":"0.00016020","ELEMENT_SET_NO":"999","MEAN_MOTION_DDOT":"0.0000000000000","OBJECT_ID":"2021-038N","RCS_SIZE":"LARGE","FILE":"3485136","GP_ID":"205594728","OBJECT_TYPE":"PAYLOAD","SITE":"AFETR","OBJECT_NAME":"STARLINK-2608","EPOCH":"2022-06-07T20:42:14.367456","RA_OF_ASC_NODE":"30.5143","MEAN_ELEMENT_THEORY":"SGP4"},{"INCLINATION":"53.0571","SEMIMAJOR_AXIS":"6925.330","LAUNCH_DATE":"2021-05-04","EPHEMERIS_TYPE":"0","TLE_LINE2":"2 48366  53.0571  25.5606 0001388  76.3158 283.7986 15.06406184 60547","ARG_OF_PERICENTER":"76.3158","TLE_LINE1":"1 48366U 21038P   22158.85020906  .00000851  00000-0  76017-4 0  9998","CENTER_NAME":"EARTH","DECAY_DATE":null,"NORAD_CAT_ID":"48366","PERIOD":"95.592","COUNTRY_CODE":"US","REF_FRAME":"TEME","MEAN_MOTION":"15.06406184","PERIAPSIS":"546.233","APOAPSIS":"548.156","MEAN_MOTION_DOT":"0.00000851","REV_AT_EPOCH":"6054","CLASSIFICATION_TYPE":"U","BSTAR":"0.00007601700000","MEAN_ANOMALY":"283.7986","GP_ID":"205595478","FILE":"3485136","EPOCH":"2022-06-07T20:24:18.062784","MEAN_ELEMENT_THEORY":"SGP4","RA_OF_ASC_NODE":"25.5606","OBJECT_NAME":"STARLINK-2631","OBJECT_TYPE":"PAYLOAD","SITE":"AFETR","ELEMENT_SET_NO":"999","ECCENTRICITY":"0.00013880","TIME_SYSTEM":"UTC","RCS_SIZE":"LARGE","MEAN_MOTION_DDOT":"0.0000000000000","OBJECT_ID":"2021-038P"}];
